[{"OBJECT_NAME":"STARLINK-6114","OBJECT_ID":"2023-046Z","EPOCH":"2026-03-09T06:38:39.291360","MEAN_MOTION":15.02532897,"ECCENTRICITY":0.00015396,"INCLINATION":43.0033,"RA_OF_ASC_NODE":160.87,"ARG_OF_PERICENTER":269.1898,"MEAN_ANOMALY":90.8768,"EPHEMERIS_TYPE":0,"CLASSIFICATION_TYPE":"U","NORAD_CAT_ID":56116,"ELEMENT_SET_NO":999,"REV_AT_EPOCH":16200,"BSTAR":4.675226e-5,"MEAN_MOTION_DOT":4.28e-6,"MEAN_MOTION_DDOT":0},{"OBJECT_NAME":"CZ-6A DEB","OBJECT_ID":"2022-151BY","EPOCH":"2026-03-09T19:54:31.094784","MEAN_MOTION":14.84736827,"ECCENTRICITY":0.00926882,"INCLINATION":98.6307,"RA_OF_ASC_NODE":160.4734,"ARG_OF_PERICENTER":65.7458,"MEAN_ANOMALY":295.3404,"EPHEMERIS_TYPE":0,"CLASSIFICATION_TYPE":"U","NORAD_CAT_ID":54329,"ELEMENT_SET_NO":999,"REV_AT_EPOCH":17696,"BSTAR":0.0019746466,"MEAN_MOTION_DOT":0.00018045,"MEAN_MOTION_DDOT":0}]
